ALOS (DAICHI)           
1 28931U 06002A   26025.47615811  .00002451  00000+0  42025-3 0  9996
2 28931  98.1152 341.6741 0002176  80.3301 279.8150 14.69652336 67132
H-2A R/B                
1 28932U 06002B   26025.63963403  .00012074  00000+0  61754-3 0  9990
2 28932  98.2341 169.0139 0053870  28.9044 331.5151 15.15536905 87916
RESURS-DK 1             
1 29228U 06021A   26025.61717763  .00004338  00000+0  25488-3 0  9992
2 29228  69.9347 348.4168 0005122 216.3907 143.6912 15.12459752 81012
CZ-4B R/B               
1 29507U 06046C   26025.59290285  .00007908  00000+0  40415-3 0  9994
2 29507  97.5678  70.6136 0034957  58.4918 301.9722 15.16405224 53511
CZ-2C R/B               
1 31114U 07010B   26025.32844384  .00000251  00000+0  13405-3 0  9992
2 31114  98.3972 140.7861 0059954  60.9297 299.7867 14.20230221973567
COSMO-SKYMED 1          
1 31598U 07023A   26025.60001374  .00006390  00000+0  57238-3 0  9999
2 31598  97.8849 216.2998 0001358  89.6478 270.4899 14.96162929  8465
COSMOS 2428             
1 31792U 07029A   26025.13706397  .00000465  00000+0  27555-3 0  9992
2 31792  70.9402 294.7682 0006315 326.4429  33.6291 14.12920147957948
SL-16 R/B               
1 31793U 07029B   26025.64233250  .00000002  00000+0  25940-4 0  9996
2 31793  70.9736 262.8736 0001913 271.7727 118.9919 14.14822263959282
KORONAS-FOTON           
1 33504U 09003A   26025.76129534  .00016182  00000+0  37547-3 0  9995
2 33504  82.4326 320.4619 0009721 322.0956  37.9605 15.42205726939121
CZ-2C R/B               
1 37731U 11030B   26025.84250550  .00002118  00000+0  27319-3 0  9996
2 37731  97.8474 343.9920 0053837 128.7495 261.2717 14.81054325783753
H-2A R/B                
1 38341U 12025E   26025.82563014  .00005212  00000+0  47543-3 0  9998
2 38341  98.4655 349.4797 0046206  92.8411 267.8096 14.94775739741819
SHIJIAN-16 (SJ-16)      
1 39358U 13057A   26025.85576840 -.00000110  00000+0 -78590-5 0  9999
2 39358  74.9716 266.1712 0017444 217.8672 142.1290 14.92196911665113
