CCSDS_OMM_VERS = 2.0
CREATION_DATE  = 
ORIGINATOR     = 

OBJECT_NAME    = ALOS (DAICHI)
OBJECT_ID      = 2006-002A
CENTER_NAME    = EARTH
REF_FRAME      = TEME
TIME_SYSTEM    = UTC
MEAN_ELEMENT_THEORY = SGP/SGP4

EPOCH          = 2026-01-25T11:25:40.060704
MEAN_MOTION    = 14.69652336
ECCENTRICITY   = .00021767
INCLINATION    = 98.1152
RA_OF_ASC_NODE = 341.6741
ARG_OF_PERICENTER = 80.3301
MEAN_ANOMALY   = 279.8150

EPHEMERIS_TYPE = 0
CLASSIFICATION_TYPE = U
NORAD_CAT_ID   = 28931
ELEMENT_SET_NO = 999
REV_AT_EPOCH   = 6713
BSTAR          = .42024943E-3
MEAN_MOTION_DOT = .2451E-4
MEAN_MOTION_DDOT = 0

CCSDS_OMM_VERS = 2.0
CREATION_DATE  = 
ORIGINATOR     = 

OBJECT_NAME    = H-2A R/B
OBJECT_ID      = 2006-002B
CENTER_NAME    = EARTH
REF_FRAME      = TEME
TIME_SYSTEM    = UTC
MEAN_ELEMENT_THEORY = SGP/SGP4

EPOCH          = 2026-01-25T15:21:04.380192
MEAN_MOTION    = 15.15536905
ECCENTRICITY   = .00538704
INCLINATION    = 98.2341
RA_OF_ASC_NODE = 169.0139
ARG_OF_PERICENTER = 28.9044
MEAN_ANOMALY   = 331.5151

EPHEMERIS_TYPE = 0
CLASSIFICATION_TYPE = U
NORAD_CAT_ID   = 28932
ELEMENT_SET_NO = 999
REV_AT_EPOCH   = 8791
BSTAR          = .61753856E-3
MEAN_MOTION_DOT = .12074E-3
MEAN_MOTION_DDOT = 0

CCSDS_OMM_VERS = 2.0
CREATION_DATE  = 
ORIGINATOR     = 

OBJECT_NAME    = RESURS-DK 1
OBJECT_ID      = 2006-021A
CENTER_NAME    = EARTH
REF_FRAME      = TEME
TIME_SYSTEM    = UTC
MEAN_ELEMENT_THEORY = SGP/SGP4

EPOCH          = 2026-01-25T14:48:44.147232
MEAN_MOTION    = 15.12459752
ECCENTRICITY   = .00051227
INCLINATION    = 69.9347
RA_OF_ASC_NODE = 348.4168
ARG_OF_PERICENTER = 216.3907
MEAN_ANOMALY   = 143.6912

EPHEMERIS_TYPE = 0
CLASSIFICATION_TYPE = U
NORAD_CAT_ID   = 29228
ELEMENT_SET_NO = 999
REV_AT_EPOCH   = 8101
BSTAR          = .25487993E-3
MEAN_MOTION_DOT = .4338E-4
MEAN_MOTION_DDOT = 0

CCSDS_OMM_VERS = 2.0
CREATION_DATE  = 
ORIGINATOR     = 

OBJECT_NAME    = CZ-4B R/B
OBJECT_ID      = 2006-046C
CENTER_NAME    = EARTH
REF_FRAME      = TEME
TIME_SYSTEM    = UTC
MEAN_ELEMENT_THEORY = SGP/SGP4

EPOCH          = 2026-01-25T14:13:46.806240
MEAN_MOTION    = 15.16405224
ECCENTRICITY   = .00349579
INCLINATION    = 97.5678
RA_OF_ASC_NODE = 70.6136
ARG_OF_PERICENTER = 58.4918
MEAN_ANOMALY   = 301.9722

EPHEMERIS_TYPE = 0
CLASSIFICATION_TYPE = U
NORAD_CAT_ID   = 29507
ELEMENT_SET_NO = 999
REV_AT_EPOCH   = 5351
BSTAR          = .40415098E-3
MEAN_MOTION_DOT = .7908E-4
MEAN_MOTION_DDOT = 0

CCSDS_OMM_VERS = 2.0
CREATION_DATE  = 
ORIGINATOR     = 

OBJECT_NAME    = CZ-2C R/B
OBJECT_ID      = 2007-010B
CENTER_NAME    = EARTH
REF_FRAME      = TEME
TIME_SYSTEM    = UTC
MEAN_ELEMENT_THEORY = SGP/SGP4

EPOCH          = 2026-01-25T07:52:57.547776
MEAN_MOTION    = 14.20230221
ECCENTRICITY   = .0059954
INCLINATION    = 98.3972
RA_OF_ASC_NODE = 140.7861
ARG_OF_PERICENTER = 60.9297
MEAN_ANOMALY   = 299.7867

EPHEMERIS_TYPE = 0
CLASSIFICATION_TYPE = U
NORAD_CAT_ID   = 31114
ELEMENT_SET_NO = 999
REV_AT_EPOCH   = 97356
BSTAR          = .13405E-3
MEAN_MOTION_DOT = .251E-5
MEAN_MOTION_DDOT = 0

CCSDS_OMM_VERS = 2.0
CREATION_DATE  = 
ORIGINATOR     = 

OBJECT_NAME    = COSMO-SKYMED 1
OBJECT_ID      = 2007-023A
CENTER_NAME    = EARTH
REF_FRAME      = TEME
TIME_SYSTEM    = UTC
MEAN_ELEMENT_THEORY = SGP/SGP4

EPOCH          = 2026-01-25T14:24:01.187136
MEAN_MOTION    = 14.96162929
ECCENTRICITY   = .00013589
INCLINATION    = 97.8849
RA_OF_ASC_NODE = 216.2998
ARG_OF_PERICENTER = 89.6478
MEAN_ANOMALY   = 270.4899

EPHEMERIS_TYPE = 0
CLASSIFICATION_TYPE = U
NORAD_CAT_ID   = 31598
ELEMENT_SET_NO = 999
REV_AT_EPOCH   = 846
BSTAR          = .57238353E-3
MEAN_MOTION_DOT = .639E-4
MEAN_MOTION_DDOT = 0

CCSDS_OMM_VERS = 2.0
CREATION_DATE  = 
ORIGINATOR     = 

OBJECT_NAME    = COSMOS 2428
OBJECT_ID      = 2007-029A
CENTER_NAME    = EARTH
REF_FRAME      = TEME
TIME_SYSTEM    = UTC
MEAN_ELEMENT_THEORY = SGP/SGP4

EPOCH          = 2026-01-25T03:17:22.327008
MEAN_MOTION    = 14.12920147
ECCENTRICITY   = .00063159
INCLINATION    = 70.9402
RA_OF_ASC_NODE = 294.7682
ARG_OF_PERICENTER = 326.4429
MEAN_ANOMALY   = 33.6291

EPHEMERIS_TYPE = 0
CLASSIFICATION_TYPE = U
NORAD_CAT_ID   = 31792
ELEMENT_SET_NO = 999
REV_AT_EPOCH   = 95794
BSTAR          = .27554839E-3
MEAN_MOTION_DOT = .465E-5
MEAN_MOTION_DDOT = 0

CCSDS_OMM_VERS = 2.0
CREATION_DATE  = 
ORIGINATOR     = 

OBJECT_NAME    = SL-16 R/B
OBJECT_ID      = 2007-029B
CENTER_NAME    = EARTH
REF_FRAME      = TEME
TIME_SYSTEM    = UTC
MEAN_ELEMENT_THEORY = SGP/SGP4

EPOCH          = 2026-01-25T15:24:57.528000
MEAN_MOTION    = 14.14822263
ECCENTRICITY   = .00019133
INCLINATION    = 70.9736
RA_OF_ASC_NODE = 262.8736
ARG_OF_PERICENTER = 271.7727
MEAN_ANOMALY   = 118.9919

EPHEMERIS_TYPE = 0
CLASSIFICATION_TYPE = U
NORAD_CAT_ID   = 31793
ELEMENT_SET_NO = 999
REV_AT_EPOCH   = 95928
BSTAR          = .25939771E-4
MEAN_MOTION_DOT = .2E-7
MEAN_MOTION_DDOT = 0

CCSDS_OMM_VERS = 2.0
CREATION_DATE  = 
ORIGINATOR     = 

OBJECT_NAME    = KORONAS-FOTON
OBJECT_ID      = 2009-003A
CENTER_NAME    = EARTH
REF_FRAME      = TEME
TIME_SYSTEM    = UTC
MEAN_ELEMENT_THEORY = SGP/SGP4

EPOCH          = 2026-01-25T18:16:15.917376
MEAN_MOTION    = 15.42205726
ECCENTRICITY   = .0009721
INCLINATION    = 82.4326
RA_OF_ASC_NODE = 320.4619
ARG_OF_PERICENTER = 322.0956
MEAN_ANOMALY   = 37.9605

EPHEMERIS_TYPE = 0
CLASSIFICATION_TYPE = U
NORAD_CAT_ID   = 33504
ELEMENT_SET_NO = 999
REV_AT_EPOCH   = 93912
BSTAR          = .37547E-3
MEAN_MOTION_DOT = .16182E-3
MEAN_MOTION_DDOT = 0

CCSDS_OMM_VERS = 2.0
CREATION_DATE  = 
ORIGINATOR     = 

OBJECT_NAME    = CZ-2C R/B
OBJECT_ID      = 2011-030B
CENTER_NAME    = EARTH
REF_FRAME      = TEME
TIME_SYSTEM    = UTC
MEAN_ELEMENT_THEORY = SGP/SGP4

EPOCH          = 2026-01-25T20:13:12.475200
MEAN_MOTION    = 14.81054325
ECCENTRICITY   = .0053837
INCLINATION    = 97.8474
RA_OF_ASC_NODE = 343.9920
ARG_OF_PERICENTER = 128.7495
MEAN_ANOMALY   = 261.2717

EPHEMERIS_TYPE = 0
CLASSIFICATION_TYPE = U
NORAD_CAT_ID   = 37731
ELEMENT_SET_NO = 999
REV_AT_EPOCH   = 78375
BSTAR          = .27319E-3
MEAN_MOTION_DOT = .2118E-4
MEAN_MOTION_DDOT = 0

CCSDS_OMM_VERS = 2.0
CREATION_DATE  = 
ORIGINATOR     = 

OBJECT_NAME    = H-2A R/B
OBJECT_ID      = 2012-025E
CENTER_NAME    = EARTH
REF_FRAME      = TEME
TIME_SYSTEM    = UTC
MEAN_ELEMENT_THEORY = SGP/SGP4

EPOCH          = 2026-01-25T19:48:54.444096
MEAN_MOTION    = 14.94775739
ECCENTRICITY   = .0046206
INCLINATION    = 98.4655
RA_OF_ASC_NODE = 349.4797
ARG_OF_PERICENTER = 92.8411
MEAN_ANOMALY   = 267.8096

EPHEMERIS_TYPE = 0
CLASSIFICATION_TYPE = U
NORAD_CAT_ID   = 38341
ELEMENT_SET_NO = 999
REV_AT_EPOCH   = 74181
BSTAR          = .47543E-3
MEAN_MOTION_DOT = .5212E-4
MEAN_MOTION_DDOT = 0

CCSDS_OMM_VERS = 2.0
CREATION_DATE  = 
ORIGINATOR     = 

OBJECT_NAME    = SHIJIAN-16 (SJ-16)
OBJECT_ID      = 2013-057A
CENTER_NAME    = EARTH
REF_FRAME      = TEME
TIME_SYSTEM    = UTC
MEAN_ELEMENT_THEORY = SGP/SGP4

EPOCH          = 2026-01-25T20:32:18.389760
MEAN_MOTION    = 14.92196911
ECCENTRICITY   = .0017444
INCLINATION    = 74.9716
RA_OF_ASC_NODE = 266.1712
ARG_OF_PERICENTER = 217.8672
MEAN_ANOMALY   = 142.1290

EPHEMERIS_TYPE = 0
CLASSIFICATION_TYPE = U
NORAD_CAT_ID   = 39358
ELEMENT_SET_NO = 999
REV_AT_EPOCH   = 66511
BSTAR          = -.7859E-5
MEAN_MOTION_DOT = -.11E-5
MEAN_MOTION_DDOT = 0

